{
  "name": "ORBCOMM",
  "date": "2020-03-06 15:56:43 CET",
  "tles": [{
    "ORBCOMM FM08": [
      "1 25112C 97084A   20065.39477393  .00000000  00000-0  00000-0 0  9997",
      "2 25112  45.0157 198.0229 0008692 241.6277 118.3696 14.39037471163182"
    ],
    "ORBCOMM FM10": [
      "1 25113C 97084B   20065.72388930  .00000000  00000-0  00000-0 0  9993",
      "2 25113  45.0169 197.8834 0006781 216.9837 143.0545 14.39016414338242"
    ],
    "ORBCOMM FM11": [
      "1 25114C 97084C   20065.72421294  .00000000  00000-0  00000-0 0  9995",
      "2 25114  45.0153 197.1734 0007543 218.1007 141.9309 14.38976388163254"
    ],
    "ORBCOMM FM12": [
      "1 25115C 97084D   20065.69661631  .00000000  00000-0  00000-0 0  9993",
      "2 25115  45.0161 197.0380 0006487 218.6017 141.4368 14.38997193163035"
    ],
    "ORBCOMM FM09": [
      "1 25116C 97084E   20065.42208277  .00000000  00000-0  00000-0 0  9998",
      "2 25116  45.0164 198.8955 0007666 205.6786 154.3683 14.39008427163188"
    ],
    "ORBCOMM FM05": [
      "1 25117C 97084F   20065.39480581  .00000000  00000-0  00000-0 0  9995",
      "2 25117  45.0161 199.2266 0003230 228.0353 132.0221 14.38987766162268"
    ],
    "ORBCOMM FM06": [
      "1 25118C 97084G   20065.75347743  .00000000  00000-0  00000-0 0  9998",
      "2 25118  45.0160 197.2639 0003073 229.5707 271.7841 14.39025642163250"
    ],
    "ORBCOMM FM07": [
      "1 25119C 97084H   20065.68332837  .00000000  00000-0  00000-0 0  9999",
      "2 25119  45.0152 197.8278 0004738 218.1772 141.8741 14.38997178163226"
    ]  }, {
    "ORBCOMM FM04": [
      "1 25159C 98007C   20065.71789641  .00000000  00000-0  00000-0 0  9992",
      "2 25159 107.9933 152.8609 0043197 355.8517   4.2257 14.29764161148289"
    ],
    "ORBCOMM FM18": [
      "1 25414C 98046B   20065.68236988  .00000000  00000-0  00000-0 0  9996",
      "2 25414  44.9950 272.5452 0004300   7.6087 352.4824 14.32967910127360"
    ],
    "ORBCOMM FM19": [
      "1 25415C 98046C   20065.65245861  .00000000  00000-0  00000-0 0  9994",
      "2 25415  44.9952 273.1887 0003111 359.7483  47.1052 14.32934932127361"
    ],
    "ORBCOMM FM20": [
      "1 25416C 98046D   20065.65132306  .00000000  00000-0  00000-0 0  9994",
      "2 25416  44.9955 273.4200 0000492  57.7845 302.3049 14.32924646127311"
    ],
    "ORBCOMM FM16": [
      "1 25417C 98046E   20001.86351668  .00000000  00000-0  00000-0 0  9992",
      "2 25417  44.9943 214.2661 0004585  54.2712 305.8560 14.33164677118042"
    ],
    "ORBCOMM FM15": [
      "1 25418C 98046F   20065.66716486  .00000000  00000-0  00000-0 0  9994",
      "2 25418  44.9985 275.2706 0003787  27.7590  42.9005 14.32968202127361"
    ],
    "ORBCOMM FM14": [
      "1 25419C 98046G   20065.67570584  .00000000  00000-0  00000-0 0  9993",
      "2 25419  44.9979 275.0071 0002508  20.2777  55.2551 14.32977458127189"
    ],
    "ORBCOMM FM13": [
      "1 25420C 98046H   20065.65572401  .00000000  00000-0  00000-0 0  9993",
      "2 25420  44.9985 276.2430 0004755   9.7095 350.3842 14.32827066126248"
    ]  }, {
    "ORBCOMM FM21": [
      "1 25475C 98053A   20065.17323228  .00000000  00000-0  00000-0 0  9999",
      "2 25475  45.0114   2.0817 0002410 323.0679  37.0001 14.32918543120188"
    ],
    "ORBCOMM FM23": [
      "1 25477C 98053C   20065.17669196  .00000000  00000-0  00000-0 0  9998",
      "2 25477  45.0116   3.4428 0003341 319.7462  40.3136 14.32784601120341"
    ],
    "ORBCOMM FM27": [
      "1 25481C 98053G   20065.21014715  .00000000  00000-0  00000-0 0  9999",
      "2 25481  45.0087   2.6983 0001446 337.5292  22.5490 14.32886146120637"
    ],
    "ORBCOMM FM30": [
      "1 25980C 99065A   20065.68514992  .00000000  00000-0  00000-0 0  9990",
      "2 25980  45.0324 175.1691 0006178 130.9649 229.1733 14.32852868 58005"
    ],
    "ORBCOMM FM31": [
      "1 25981C 99065B   20065.67383649  .00000000  00000-0  00000-0 0  9993",
      "2 25981  45.0236 170.2594 0004347 165.1319 194.9656 14.32857954 57100"
    ],
    "ORBCOMM FM32": [
      "1 25982C 99065C   20065.70620976  .00000000  00000-0  00000-0 0  9995",
      "2 25982  45.0174 173.8459 0006873 159.5523 200.5599 14.32064853 57918"
    ],
    "ORBCOMM FM36": [
      "1 25984C 99065E   20065.67245118  .00000000  00000-0  00000-0 0  9994",
      "2 25984  45.0386 178.4544 0001380  59.3016 300.7966 14.32822426 57990"
    ],
    "ORBCOMM FM35": [
      "1 25985C 99065F   20065.69260649  .00000000  00000-0  00000-0 0  9993",
      "2 25985  45.0403 179.7640 0004142 168.6127 191.4814 14.32894133 58013"
    ],
    "ORBCOMM FM34": [
      "1 25986C 99065G   20065.72308280  .00000000  00000-0  00000-0 0  9992",
      "2 25986  45.0398 179.3472 0003096 118.2783 241.8377 14.32816174 58004"
    ]  }, {
    "VESSELSAT 1": [
      "1 37840C 11058C   20065.79220692  .00000000  00000-0  00000-0 0  9997",
      "2 37840  19.9653 242.4754 0013822 215.4653 144.4843 14.10893715433712"
    ],
    "VESSELSAT 2": [
      "1 38047C 12001B   16300.92863863  .00000000  00000-0  00000-0 0  9991",
      "2 38047  97.3971  76.7789 0011130 260.8276  99.6698 16.49214973270564"
    ],
    "ORBCOMM FM109": [
      "1 40086C 14040A   20065.93512164  .00000000  00000-0  00000-0 0 19767",
      "2 40086  47.0036  92.0439 0001397 138.7536 221.3454 14.54797844291118"
    ],
    "ORBCOMM FM107": [
      "1 40087C 14040B   20065.95784957  .00000000  00000-0  00000-0 0 19840",
      "2 40087  47.0056  92.5253 0001534 154.2389 205.8571 14.54796800291110"
    ],
    "ORBCOMM FM106": [
      "1 40088C 14040C   20065.39131992  .00000000  00000-0  00000-0 0 20330",
      "2 40088  47.0626  53.9459 0018586 151.9506 208.2388 14.64370411300608"
    ],
    "ORBCOMM FM104": [
      "1 40090C 14040E   20065.55687235  .00000000  00000-0  00000-0 0 19762",
      "2 40090  47.0057 107.2700 0016954  56.4760 303.7741 14.53397623292649"
    ],
    "ORBCOMM FM103": [
      "1 40091C 14040F   20065.98092154  .00000000  00000-0  00000-0 0 20021",
      "2 40091  47.0058  92.7111 0001362 137.9837 222.1152 14.54798673291125"
    ],
    "ORBCOMM FM114": [
      "1 41179C 15081A   20065.96118174  .00000000  00000-0  00000-0 0 25872",
      "2 41179  47.0040   2.6789 0002275 181.8212 178.2664 14.54789155300860"
    ],
    "ORBCOMM FM119": [
      "1 41180C 15081B   20065.64077135  .00000000  00000-0  00000-0 0 25814",
      "2 41180  47.0012 273.4400 0002109 248.0415 112.0245 14.54781614301141"
    ],
    "ORBCOMM FM105": [
      "1 41181C 15081C   20065.51807396  .00000000  00000-0  00000-0 0 19993",
      "2 41181  47.0014 108.1609 0002438 304.9536  55.1115 14.43379593291339"
    ],
    "ORBCOMM FM110": [
      "1 41182C 15081D   20065.93751169  .00000000  00000-0  00000-0 0 25982",
      "2 41182  47.0026   2.3583 0001682 328.5221  31.5562 14.54794111300831"
    ],
    "ORBCOMM FM118": [
      "1 41183C 15081E   20065.98409677  .00000000  00000-0  00000-0 0 25959",
      "2 41183  47.0047   2.1683 0001357 330.7537  29.3271 14.54787786300009"
    ],
    "ORBCOMM FM112": [
      "1 41184C 15081F   20065.96230875  .00000000  00000-0  00000-0 0 25916",
      "2 41184  46.9974 271.4377 0002160 224.9278 135.1431 14.54758639302020"
    ],
    "ORBCOMM FM113": [
      "1 41185C 15081G   20065.94090035  .00000000  00000-0  00000-0 0 25771",
      "2 41185  46.9997 271.5318 0002117 239.9175 120.1499 14.54777254302073"
    ],
    "ORBCOMM FM115": [
      "1 41186C 15081H   20065.96259152  .00000000  00000-0  00000-0 0 25726",
      "2 41186  46.9988 173.5283 0001757 228.8062 131.2672 14.58611280302477"
    ],
    "ORBCOMM FM108": [
      "1 41187C 15081J   20065.96850594  .00000000  00000-0  00000-0 0 16184",
      "2 41187  47.0041 182.1818 0002057 156.9009 203.1968 14.54785888313084"
    ],
    "ORBCOMM FM117": [
      "1 41188C 15081K   20065.93448416  .00000000  00000-0  00000-0 0 25728",
      "2 41188  47.0002 181.7617 0002965 166.1091 193.9875 14.54773421302368"
    ],
    "ORBCOMM FM116": [
      "1 41189C 15081L   20065.98542482  .00000000  00000-0  00000-0 0 25878",
      "2 41189  47.0000 271.1397 0002223 225.5789 134.4913 14.54767130301202"
    ]
  }]
}
